NORAD_CAT_ID,OBJECT_NAME,OBJECT_TYPE,EPOCH,MEAN_MOTION,ECCENTRICITY,INCLINATION,RA_OF_ASC_NODE,ARG_OF_PERICENTER,MEAN_ANOMALY,BSTAR,MEAN_MOTION_DOT,MEAN_MOTION_DDOT,TLE_LINE0,TLE_LINE1,TLE_LINE2,SEMIMAJOR_AXIS,PERIOD,APOGEE,PERIGEE,DECAYED
53904.0,STARLINK-4787,PAYLOAD,2024-03-02 03:05:57,15.08838685,0.0001254,53.2168,34.7586,91.8681,268.2455,0.00011539,1.549e-05,0.0,0 STARLINK-4787,1 53904U 22119U   24062.12914021  .00001549  00000-0  11539-3 0  9991,2 53904  53.2168  34.7586 0001254  91.8681 268.2455 15.08838685 79927,6917.884,95.438,540.617,538.882,0.0
53904.0,STARLINK-4787,PAYLOAD,2024-03-02 04:41:20,15.08844456,0.0001376,53.217,34.4617,91.3098,268.8052,7.3151e-05,8.77e-06,0.0,0 STARLINK-4787,1 53904U 22119U   24062.19537821  .00000877  00000-0  73151-4 0  9999,2 53904  53.2170  34.4617 0001376  91.3098 268.8052 15.08844456 80355,6917.867,95.437,540.684,538.78,0.0
53904.0,STARLINK-4787,PAYLOAD,2024-03-03 04:32:08,15.08837325,0.0001364,53.2185,30.0017,88.6789,271.436,2.0886e-05,4.4e-07,0.0,0 STARLINK-4787,1 53904U 22119U   24063.18898388  .00000044  00000-0  20886-4 0  9990,2 53904  53.2185  30.0017 0001364  88.6789 271.4360 15.08837325 80089,6917.889,95.438,540.697,538.81,0.0
53904.0,STARLINK-4787,PAYLOAD,2024-03-03 22:01:22,15.08841647,0.0001467,53.2191,26.7305,87.2378,272.8782,4.4213e-05,4.16e-06,0.0,0 STARLINK-4787,1 53904U 22119U   24063.91762158  .00000416  00000-0  44213-4 0  9999,2 53904  53.2191  26.7305 0001467  87.2378 272.8782 15.08841647 80615,6917.875,95.437,540.755,538.726,0.0
53904.0,STARLINK-4787,PAYLOAD,2024-03-04 02:47:30,15.08854011,0.0001486,53.2189,25.8385,98.8418,261.2743,0.0001453,2.026e-05,0.0,0 STARLINK-4787,1 53904U 22119U   24064.11632975  .00002026  00000-0  14530-3 0  9992,2 53904  53.2189  25.8385 0001486  98.8418 261.2743 15.08854011 80229,6917.838,95.437,540.731,538.675,0.0
53904.0,STARLINK-4787,PAYLOAD,2024-03-04 04:22:54,15.08854156,0.0001675,53.2196,25.5466,112.0367,248.0803,0.00010268,1.347e-05,0.0,0 STARLINK-4787,1 53904U 22119U   24064.18256969  .00001347  00000-0  10268-3 0  9993,2 53904  53.2196  25.5466 0001675 112.0367 248.0803 15.08854156 80653,6917.837,95.437,540.861,538.543,0.0
53904.0,STARLINK-4787,PAYLOAD,2024-03-04 13:55:13,15.08844557,0.0001444,53.2194,23.7581,97.4663,262.6493,8.4073e-05,1.05e-05,0.0,0 STARLINK-4787,1 53904U 22119U   24064.58001473  .00001050  00000-0  84073-4 0  9992,2 53904  53.2194  23.7581 0001444  97.4663 262.6493 15.08844557 80299,6917.866,95.437,540.73,538.733,0.0
53904.0,STARLINK-4787,PAYLOAD,2024-03-05 02:38:20,15.08822043,0.0001496,53.219,21.38,88.0141,272.1022,-5.9712e-05,-1.238e-05,0.0,0 STARLINK-4787,1 53904U 22119U   24065.10995830 -.00001238  00000-0 -59712-4 0  9992,2 53904  53.2190  21.3800 0001496  88.0141 272.1022 15.08822043 80376,6917.935,95.439,540.835,538.765,0.0
53904.0,STARLINK-4787,PAYLOAD,2024-03-05 04:13:43,15.08824618,0.0001532,53.2195,21.0826,89.7632,270.3535,-4.7801e-05,-1.048e-05,0.0,0 STARLINK-4787,1 53904U 22119U   24065.17619697 -.00001048  00000-0 -47801-4 0  9998,2 53904  53.2195  21.0826 0001532  89.7632 270.3535 15.08824618 80807,6917.927,95.439,540.852,538.733,0.0
53904.0,STARLINK-4787,PAYLOAD,2024-03-05 13:46:01,15.08834567,0.0001557,53.2201,19.2998,92.2589,267.8582,4.208e-05,3.82e-06,0.0,0 STARLINK-4787,1 53904U 22119U   24065.57363111  .00000382  00000-0  42080-4 0  9991,2 53904  53.2201  19.2998 0001557  92.2589 267.8582 15.08834567 80448,6917.897,95.438,540.839,538.685,0.0
53904.0,STARLINK-4787,PAYLOAD,2024-03-06 04:04:29,15.08848497,0.00016,53.2188,16.6223,91.0904,269.0271,8.9158e-05,1.132e-05,0.0,0 STARLINK-4787,1 53904U 22119U   24066.16978232  .00001132  00000-0  89158-4 0  9994,2 53904  53.2188  16.6223 0001600  91.0904 269.0271 15.08848497 80537,6917.854,95.437,540.826,538.613,0.0
53904.0,STARLINK-4787,PAYLOAD,2024-03-06 07:15:15,15.08853657,0.0001565,53.2181,16.0263,88.9479,271.1693,0.00038332,5.82e-05,0.0,0 STARLINK-4787,1 53904U 22119U   24066.30226174  .00005820  00000-0  38332-3 0  9996,2 53904  53.2181  16.0263 0001565  88.9479 271.1693 15.08853657 80974,6917.839,95.437,540.786,538.621,0.0
53904.0,STARLINK-4787,PAYLOAD,2024-03-07 03:55:16,15.08840125,0.0001317,53.2176,12.1554,81.4787,278.6354,0.00018398,2.641e-05,0.0,0 STARLINK-4787,1 53904U 22119U   24067.16338825  .00002641  00000-0  18398-3 0  9996,2 53904  53.2176  12.1554 0001317  81.4787 278.6354 15.08840125 80683,6917.88,95.438,540.656,538.834,0.0
53904.0,STARLINK-4787,PAYLOAD,2024-03-07 13:27:35,15.08846675,0.0001456,53.2181,10.3703,94.6315,265.4844,0.0003228,4.854e-05,0.0,0 STARLINK-4787,1 53904U 22119U   24067.56082704  .00004854  00000-0  32280-3 0  9996,2 53904  53.2181  10.3703 0001456  94.6315 265.4844 15.08846675 81160,6917.86,95.437,540.732,538.718,0.0
53904.0,STARLINK-4787,PAYLOAD,2024-03-08 05:21:26,15.08844349,0.0001549,53.2189,7.3974,92.7476,267.3693,6.1496e-05,6.91e-06,0.0,0 STARLINK-4787,1 53904U 22119U   24068.22322796  .00000691  00000-0  61496-4 0  9995,2 53904  53.2189   7.3974 0001549  92.7476 267.3693 15.08844349 80847,6917.867,95.437,540.804,538.661,0.0
53904.0,STARLINK-4787,PAYLOAD,2024-03-08 13:18:22,15.08855338,0.0001494,53.2194,5.9098,95.7823,264.3339,0.00027061,4.023e-05,0.0,0 STARLINK-4787,1 53904U 22119U   24068.55442182  .00004023  00000-0  27061-3 0  9995,2 53904  53.2194   5.9098 0001494  95.7823 264.3339 15.08855338 81319,6917.834,95.437,540.732,538.665,0.0
53904.0,STARLINK-4787,PAYLOAD,2024-03-09 02:01:28,15.08830844,0.0001179,53.2184,3.5347,90.5545,269.5583,-9.8754e-05,-1.859e-05,0.0,0 STARLINK-4787,1 53904U 22119U   24069.08435328 -.00001859  00000-0 -98754-4 0  9992,2 53904  53.2184   3.5347 0001179  90.5545 269.5583 15.08830844 80977,6917.908,95.438,540.589,538.958,0.0
53904.0,STARLINK-4787,PAYLOAD,2024-03-09 05:12:14,15.08838844,0.0001553,53.2185,2.9385,94.0458,266.0712,7.7892e-05,9.52e-06,0.0,0 STARLINK-4787,1 53904U 22119U   24069.21683164  .00000952  00000-0  77892-4 0  9991,2 53904  53.2185   2.9385 0001553  94.0458 266.0712 15.08838844 80997,6917.884,95.438,540.823,538.675,0.0
53904.0,STARLINK-4787,PAYLOAD,2024-03-09 13:09:09,15.08847391,0.0001475,53.2185,1.454,91.5545,268.5616,0.00023857,3.512e-05,0.0,0 STARLINK-4787,1 53904U 22119U   24069.54802856  .00003512  00000-0  23857-3 0  9994,2 53904  53.2185   1.4540 0001475  91.5545 268.5616 15.08847391 81466,6917.858,95.437,540.743,538.702,0.0
53904.0,STARLINK-4787,PAYLOAD,2024-03-10 01:52:14,15.08844694,0.0001527,53.2201,359.0747,95.2066,264.91,0.00022221,3.251e-05,0.0,0 STARLINK-4787,1 53904U 22119U   24070.07794995  .00003251  00000-0  22221-3 0  9992,2 53904  53.2201 359.0747 0001527  95.2066 264.9100 15.08844694 81543,6917.866,95.437,540.787,538.675,0.0
53904.0,STARLINK-4787,PAYLOAD,2024-03-10 22:32:15,15.0883976,0.0001567,53.2197,355.2094,93.4875,266.6297,9.9516e-05,1.296e-05,0.0,0 STARLINK-4787,1 53904U 22119U   24070.93907119  .00001296  00000-0  99516-4 0  9990,2 53904  53.2197 355.2094 0001567  93.4875 266.6297 15.08839760 81670,6917.881,95.438,540.83,538.662,0.0
53904.0,STARLINK-4787,PAYLOAD,2024-03-11 01:43:02,15.08833857,0.0001361,53.2183,354.6128,80.3209,279.7937,6.2901e-05,7.13e-06,0.0,0 STARLINK-4787,1 53904U 22119U   24071.07155423  .00000713  00000-0  62901-4 0  9990,2 53904  53.2183 354.6128 0001361  80.3209 279.7937 15.08833857 81277,6917.899,95.438,540.706,538.823,0.0
53904.0,STARLINK-4787,PAYLOAD,2024-03-11 11:15:20,15.08844601,0.0001338,53.2184,352.8316,82.6775,277.4369,0.00010085,1.318e-05,0.0,0 STARLINK-4787,1 53904U 22119U   24071.46898953  .00001318  00000-0  10085-3 0  9992,2 53904  53.2184 352.8316 0001338  82.6775 277.4369 15.08844601 81334,6917.866,95.437,540.657,538.806,0.0
53904.0,STARLINK-4787,PAYLOAD,2024-03-11 19:12:17,15.08828774,0.000129,53.2179,351.3445,91.2893,268.8247,-7.751e-05,-1.521e-05,0.0,0 STARLINK-4787,1 53904U 22119U   24071.80019788 -.00001521  00000-0 -77510-4 0  9996,2 53904  53.2179 351.3445 0001290  91.2893 268.8247 15.08828774 81386,6917.915,95.438,540.672,538.887,0.0
53904.0,STARLINK-4787,PAYLOAD,2024-03-12 19:03:04,15.08835219,0.0001381,53.22,346.8877,92.4051,267.7099,0.00018834,2.71e-05,0.0,0 STARLINK-4787,1 53904U 22119U   24072.79379708  .00002710  00000-0  18834-3 0  9998,2 53904  53.2200 346.8877 0001381  92.4051 267.7099 15.08835219 81957,6917.895,95.438,540.715,538.805,0.0
53904.0,STARLINK-4787,PAYLOAD,2024-03-13 04:35:19,15.08897055,0.0001691,53.219,345.1029,99.6866,260.4318,0.00091499,0.00014327,0.0,0 STARLINK-4787,1 53904U 22119U   24073.19120195  .00014327  00000-0  91499-3 0  9992,2 53904  53.2190 345.1029 0001691  99.6866 260.4318 15.08897055 81593,6917.706,95.434,540.741,538.401,0.0
53904.0,STARLINK-4787,PAYLOAD,2024-03-13 10:56:54,15.08834887,0.0001388,53.2178,343.9095,80.4459,279.669,-8.5146e-05,-1.643e-05,0.0,0 STARLINK-4787,1 53904U 22119U   24073.45619210 -.00001643  00000-0 -85146-4 0  9994,2 53904  53.2178 343.9095 0001388  80.4459 279.6690 15.08834887 81631,6917.896,95.438,540.721,538.801,0.0
53904.0,STARLINK-4787,PAYLOAD,2024-03-13 22:04:37,15.08826777,0.0001465,53.2187,341.8316,87.8842,272.2318,-7.3446e-05,-1.456e-05,0.0,0 STARLINK-4787,1 53904U 22119U   24073.91987996 -.00001456  00000-0 -73446-4 0  9996,2 53904  53.2187 341.8316 0001465  87.8842 272.2318 15.08826777 82127,6917.921,95.438,540.799,538.772,0.0
53904.0,STARLINK-4787,PAYLOAD,2024-03-14 01:15:23,15.08830542,0.000133,53.218,341.2335,84.9066,275.2078,-7.5015e-05,-1.481e-05,0.0,0 STARLINK-4787,1 53904U 22119U   24074.05235824 -.00001481  00000-0 -75015-4 0  9990,2 53904  53.2180 341.2335 0001330  84.9066 275.2078 15.08830542 82145,6917.909,95.438,540.694,538.854,0.0
53904.0,STARLINK-4787,PAYLOAD,2024-03-14 21:55:24,15.08839202,0.0001595,53.2182,337.3672,89.5287,270.5888,5.5245e-05,5.91e-06,0.0,0 STARLINK-4787,1 53904U 22119U   24074.91347733  .00000591  00000-0  55245-4 0  9990,2 53904  53.2182 337.3672 0001595  89.5287 270.5888 15.08839202 82279,6917.883,95.438,540.851,538.644,0.0
